PROPCUBE 3              
1 40973U 15058K   26068.73202292  .00005546  00000+0  46586-3 0  9992
2 40973  64.7688 203.0958 0123527  99.6156 261.8939 14.93528956 99948
STARLINK-5137           
1 53975U 22125M   26068.72383982 -.00000125  00000+0  10218-4 0  9999
2 53975  53.2181 218.5459 0001163  86.4265 273.6861 15.08835293189406
